{"type": "FeatureCollection", "features": [ {"type": "Feature", "properties": {"norad_id": 34117, "name": "COSMOS 2251 DEB", "group": "cosmos-2251-debris", "lat": 51.49782627067627, "lon": 120.63911865444989, "alt_km": 753.433108153974, "timestamp": "2025-12-24T16:52:41.931148+00:00", "meta": {"OBJECT_NAME": "COSMOS 2251 DEB", "OBJECT_ID": "1993-036KN", "EPOCH": "2025-12-24T04:37:53.622336", "MEAN_MOTION": 14.40056572, "ECCENTRICITY": 0.00550373, "INCLINATION": 74.0394, "RA_OF_ASC_NODE": 322.6669, "ARG_OF_PERICENTER": 35.8324, "MEAN_ANOMALY": 324.6502, "EPHEMERIS_TYPE": 0, "CLASSIFICATION_TYPE": "U", "NORAD_CAT_ID": 34117, "ELEMENT_SET_NO": 999, "REV_AT_EPOCH": 88288, "BSTAR": 0.00067179394, "MEAN_MOTION_DOT": 2.131e-05, "MEAN_MOTION_DDOT": 0}, "tle": {"line1": "1 34117U 93036KN  25358.19298174  .00002131  00000+0  67179-3 0  9990", "line2": "2 34117  74.0394 322.6669 0055037  35.8324 324.6502 14.40056572882884"}}, "geometry": {"type": "Point", "coordinates": [120.63911865444989, 51.49782627067627]}}, {"type": "Feature", "properties": {"norad_id": 34118, "name": "COSMOS 2251 DEB", "group": "cosmos-2251-debris", "lat": 3.278249670514589, "lon": -133.96762150452574, "alt_km": 558.9671606819993, "timestamp": "2025-12-24T16:52:41.931159+00:00", "meta": {"OBJECT_NAME": "COSMOS 2251 DEB", "OBJECT_ID": "1993-036KP", "EPOCH": "2025-12-24T01:19:31.048608", "MEAN_MOTION": 14.94297235, "ECCENTRICITY": 0.00601473, "INCLINATION": 73.9506, "RA_OF_ASC_NODE": 226.3993, "ARG_OF_PERICENTER": 53.733, "MEAN_ANOMALY": 65.632, "EPHEMERIS_TYPE": 0, "CLASSIFICATION_TYPE": "U", "NORAD_CAT_ID": 34118, "ELEMENT_SET_NO": 999, "REV_AT_EPOCH": 89345, "BSTAR": 0.0014165255, "MEAN_MOTION_DOT": 0.00015768, "MEAN_MOTION_DDOT": 0}, "tle": {"line1": "1 34118U 93036KP  25358.05522047  .00015768  00000+0  14165-2 0  9991", "line2": "2 34118  73.9506 226.3993 0060147  53.7330  65.6320 14.94297235893459"}}, "geometry": {"type": "Point", "coordinates": [-133.96762150452574, 3.278249670514589]}}, {"type": "Feature", "properties": {"norad_id": 34120, "name": "COSMOS 2251 DEB", "group": "cosmos-2251-debris", "lat": -72.6274436335553, "lon": 82.09160944030359, "alt_km": 964.3631072269636, "timestamp": "2025-12-24T16:52:41.931169+00:00", "meta": {"OBJECT_NAME": "COSMOS 2251 DEB", "OBJECT_ID": "1993-036KR", "EPOCH": "2025-12-24T00:44:27.259584", "MEAN_MOTION": 13.98696062, "ECCENTRICITY": 0.01824434, "INCLINATION": 73.9902, "RA_OF_ASC_NODE": 196.6627, "ARG_OF_PERICENTER": 21.8452, "MEAN_ANOMALY": 98.8069, "EPHEMERIS_TYPE": 0, "CLASSIFICATION_TYPE": "U", "NORAD_CAT_ID": 34120, "ELEMENT_SET_NO": 999, "REV_AT_EPOCH": 86138, "BSTAR": 0.00028900175, "MEAN_MOTION_DOT": 4.55e-06, "MEAN_MOTION_DDOT": 0}, "tle": {"line1": "1 34120U 93036KR  25358.03087106  .00000455  00000+0  28900-3 0  9994", "line2": "2 34120  73.9902 196.6627 0182443  21.8452  98.8069 13.98696062861389"}}, "geometry": {"type": "Point", "coordinates": [82.09160944030359, -72.6274436335553]}}, {"type": "Feature", "properties": {"norad_id": 34121, "name": "COSMOS 2251 DEB", "group": "cosmos-2251-debris", "lat": -4.841526964482105, "lon": -101.93804620484406, "alt_km": 935.0679353203595, "timestamp": "2025-12-24T16:52:41.931180+00:00", "meta": {"OBJECT_NAME": "COSMOS 2251 DEB", "OBJECT_ID": "1993-036KS", "EPOCH": "2025-12-24T05:45:53.201376", "MEAN_MOTION": 13.91971024, "ECCENTRICITY": 0.02409875, "INCLINATION": 73.9922, "RA_OF_ASC_NODE": 77.4619, "ARG_OF_PERICENTER": 280.5104, "MEAN_ANOMALY": 107.6035, "EPHEMERIS_TYPE": 0, "CLASSIFICATION_TYPE": "U", "NORAD_CAT_ID": 34121, "ELEMENT_SET_NO": 999, "REV_AT_EPOCH": 85285, "BSTAR": 0.0012130603, "MEAN_MOTION_DOT": 1.937e-05, "MEAN_MOTION_DDOT": 0}, "tle": {"line1": "1 34121U 93036KS  25358.24019909  .00001937  00000+0  12131-2 0  9998", "line2": "2 34121  73.9922  77.4619 0240987 280.5104 107.6035 13.91971024852856"}}, "geometry": {"type": "Point", "coordinates": [-101.93804620484406, -4.841526964482105]}}, {"type": "Feature", "properties": {"norad_id": 34122, "name": "COSMOS 2251 DEB", "group": "cosmos-2251-debris", "lat": -13.503291631847496, "lon": 91.67589342014134, "alt_km": 620.8838041291874, "timestamp": "2025-12-24T16:52:41.931191+00:00", "meta": {"OBJECT_NAME": "COSMOS 2251 DEB", "OBJECT_ID": "1993-036KT", "EPOCH": "2025-12-23T08:25:17.196672", "MEAN_MOTION": 14.65163713, "ECCENTRICITY": 0.00849402, "INCLINATION": 74.0366, "RA_OF_ASC_NODE": 98.2185, "ARG_OF_PERICENTER": 352.0858, "MEAN_ANOMALY": 63.7399, "EPHEMERIS_TYPE": 0, "CLASSIFICATION_TYPE": "U", "NORAD_CAT_ID": 34122, "ELEMENT_SET_NO": 999, "REV_AT_EPOCH": 88840, "BSTAR": 0.001044871, "MEAN_MOTION_DOT": 5.898e-05, "MEAN_MOTION_DDOT": 0}, "tle": {"line1": "1 34122U 93036KT  25357.35089348  .00005898  00000+0  10449-2 0  9994", "line2": "2 34122  74.0366  98.2185 0084940 352.0858  63.7399 14.65163713888401"}}, "geometry": {"type": "Point", "coordinates": [91.67589342014134, -13.503291631847496]}}, {"type": "Feature", "properties": {"norad_id": 34127, "name": "COSMOS 2251 DEB", "group": "cosmos-2251-debris", "lat": -68.47087817852052, "lon": -111.80887926165678, "alt_km": 725.8719250571403, "timestamp": "2025-12-24T16:52:41.931202+00:00", "meta": {"OBJECT_NAME": "COSMOS 2251 DEB", "OBJECT_ID": "1993-036KY", "EPOCH": "2025-12-24T02:34:05.830752", "MEAN_MOTION": 14.31641488, "ECCENTRICITY": 0.01146685, "INCLINATION": 74.1797, "RA_OF_ASC_NODE": 23.3187, "ARG_OF_PERICENTER": 221.0218, "MEAN_ANOMALY": 201.6214, "EPHEMERIS_TYPE": 0, "CLASSIFICATION_TYPE": "U", "NORAD_CAT_ID": 34127, "ELEMENT_SET_NO": 999, "REV_AT_EPOCH": 86934, "BSTAR": 0.0015412488, "MEAN_MOTION_DOT": 4.391e-05, "MEAN_MOTION_DDOT": 0}, "tle": {"line1": "1 34127U 93036KY  25358.10701193  .00004391  00000+0  15412-2 0  9994", "line2": "2 34127  74.1797  23.3187 0114668 221.0218 201.6214 14.31641488869346"}}, "geometry": {"type": "Point", "coordinates": [-111.80887926165678, -68.47087817852052]}}, {"type": "Feature", "properties": {"norad_id": 34128, "name": "COSMOS 2251 DEB", "group": "cosmos-2251-debris", "lat": -41.522768132175166, "lon": 107.02018598549695, "alt_km": 584.9190129527078, "timestamp": "2025-12-24T16:52:41.931212+00:00", "meta": {"OBJECT_NAME": "COSMOS 2251 DEB", "OBJECT_ID": "1993-036KZ", "EPOCH": "2025-12-24T05:21:47.590272", "MEAN_MOTION": 15.01586826, "ECCENTRICITY": 0.00259784, "INCLINATION": 73.9992, "RA_OF_ASC_NODE": 273.2803, "ARG_OF_PERICENTER": 22.7093, "MEAN_ANOMALY": 128.3636, "EPHEMERIS_TYPE": 0, "CLASSIFICATION_TYPE": "U", "NORAD_CAT_ID": 34128, "ELEMENT_SET_NO": 999, "REV_AT_EPOCH": 89339, "BSTAR": 0.0016068597, "MEAN_MOTION_DOT": 0.00021008, "MEAN_MOTION_DDOT": 0}, "tle": {"line1": "1 34128U 93036KZ  25358.22346748  .00021008  00000+0  16069-2 0  9992", "line2": "2 34128  73.9992 273.2803 0025978  22.7093 128.3636 15.01586826893391"}}, "geometry": {"type": "Point", "coordinates": [107.02018598549695, -41.522768132175166]}}, {"type": "Feature", "properties": {"norad_id": 34129, "name": "COSMOS 2251 DEB", "group": "cosmos-2251-debris", "lat": 54.62848660054973, "lon": 112.33208668429418, "alt_km": 635.6786315652207, "timestamp": "2025-12-24T16:52:41.931222+00:00", "meta": {"OBJECT_NAME": "COSMOS 2251 DEB", "OBJECT_ID": "1993-036LA", "EPOCH": "2025-12-24T06:34:12.224640", "MEAN_MOTION": 14.75940821, "ECCENTRICITY": 0.00334619, "INCLINATION": 74.0358, "RA_OF_ASC_NODE": 316.9528, "ARG_OF_PERICENTER": 34.9722, "MEAN_ANOMALY": 325.364, "EPHEMERIS_TYPE": 0, "CLASSIFICATION_TYPE": "U", "NORAD_CAT_ID": 34129, "ELEMENT_SET_NO": 999, "REV_AT_EPOCH": 61468, "BSTAR": 0.0016143309, "MEAN_MOTION_DOT": 0.00011188, "MEAN_MOTION_DDOT": 0}, "tle": {"line1": "1 34129U 93036LA  25358.27375260  .00011188  00000+0  16143-2 0  9990", "line2": "2 34129  74.0358 316.9528 0033461  34.9722 325.3640 14.75940821614685"}}, "geometry": {"type": "Point", "coordinates": [112.33208668429418, 54.62848660054973]}}, {"type": "Feature", "properties": {"norad_id": 34136, "name": "COSMOS 2251 DEB", "group": "cosmos-2251-debris", "lat": 71.44262114805441, "lon": 140.43020591819337, "alt_km": 575.2172623857477, "timestamp": "2025-12-24T16:52:41.931233+00:00", "meta": {"OBJECT_NAME": "COSMOS 2251 DEB", "OBJECT_ID": "1993-036LH", "EPOCH": "2025-12-24T03:43:58.429632", "MEAN_MOTION": 14.80147917, "ECCENTRICITY": 0.00850421, "INCLINATION": 74.0198, "RA_OF_ASC_NODE": 20.1164, "ARG_OF_PERICENTER": 139.9525, "MEAN_ANOMALY": 282.829, "EPHEMERIS_TYPE": 0, "CLASSIFICATION_TYPE": "U", "NORAD_CAT_ID": 34136, "ELEMENT_SET_NO": 999, "REV_AT_EPOCH": 90179, "BSTAR": 0.00037289502, "MEAN_MOTION_DOT": 2.975e-05, "MEAN_MOTION_DDOT": 0}, "tle": {"line1": "1 34136U 93036LH  25358.15553738  .00002975  00000+0  37290-3 0  9994", "line2": "2 34136  74.0198  20.1164 0085042 139.9525 282.8290 14.80147917901794"}}, "geometry": {"type": "Point", "coordinates": [140.43020591819337, 71.44262114805441]}}, {"type": "Feature", "properties": {"norad_id": 34139, "name": "COSMOS 2251 DEB", "group": "cosmos-2251-debris", "lat": -0.9806220683700054, "lon": -129.02270555558025, "alt_km": 682.8256329983087, "timestamp": "2025-12-24T16:52:41.931243+00:00", "meta": {"OBJECT_NAME": "COSMOS 2251 DEB", "OBJECT_ID": "1993-036LL", "EPOCH": "2025-12-24T02:46:22.880640", "MEAN_MOTION": 14.59201816, "ECCENTRICITY": 0.00424277, "INCLINATION": 74.0295, "RA_OF_ASC_NODE": 232.3782, "ARG_OF_PERICENTER": 301.6246, "MEAN_ANOMALY": 210.9472, "EPHEMERIS_TYPE": 0, "CLASSIFICATION_TYPE": "U", "NORAD_CAT_ID": 34139, "ELEMENT_SET_NO": 999, "REV_AT_EPOCH": 88315, "BSTAR": 0.00132115, "MEAN_MOTION_DOT": 6.284e-05, "MEAN_MOTION_DDOT": 0}, "tle": {"line1": "1 34139U 93036LL  25358.11554260  .00006284  00000+0  13212-2 0  9998", "line2": "2 34139  74.0295 232.3782 0042427 301.6246 210.9472 14.59201816883154"}}, "geometry": {"type": "Point", "coordinates": [-129.02270555558025, -0.9806220683700054]}}]}